[{"OBJECT_NAME":"STARLINK-5399","OBJECT_ID":"2022-175AG","EPOCH":"2026-03-09T21:40:42.225600","MEAN_MOTION":15.08839236,"ECCENTRICITY":0.00014734,"INCLINATION":53.219,"RA_OF_ASC_NODE":28.033,"ARG_OF_PERICENTER":103.279,"MEAN_ANOMALY":256.8367,"EPHEMERIS_TYPE":0,"CLASSIFICATION_TYPE":"U","NORAD_CAT_ID":54788,"ELEMENT_SET_NO":999,"REV_AT_EPOCH":18016,"BSTAR":2.8739169e-5,"MEAN_MOTION_DOT":1.69e-6,"MEAN_MOTION_DDOT":0},{"OBJECT_NAME":"DISKSAT A","OBJECT_ID":"2025-305D","EPOCH":"2026-03-09T13:08:58.223040","MEAN_MOTION":15.07741062,"ECCENTRICITY":0.0004082,"INCLINATION":45.0023,"RA_OF_ASC_NODE":251.6019,"ARG_OF_PERICENTER":318.1929,"MEAN_ANOMALY":41.8634,"EPHEMERIS_TYPE":0,"CLASSIFICATION_TYPE":"U","NORAD_CAT_ID":67222,"ELEMENT_SET_NO":999,"REV_AT_EPOCH":1226,"BSTAR":0.00090452,"MEAN_MOTION_DOT":0.00013824,"MEAN_MOTION_DDOT":0}]
